{
  "type": "FeatureCollection",
  "features": [
    {
      "type": "Feature",
      "properties": {
        "norad_id": 30290,
        "name": "FENGYUN 1C DEB",
        "group": "fengyun-1c-debris",
        "lat": 64.48784779289569,
        "lon": 72.06018454113041,
        "alt_km": 628.9983650367249,
        "timestamp": "2025-12-20T03:42:47.668387+00:00",
        "meta_object_name": "FENGYUN 1C DEB",
        "meta_object_id": "1999-025ZB",
        "meta_epoch": "2025-12-19T06:22:36.153408",
        "meta_mean_motion": 14.75293189,
        "meta_eccentricity": 0.0016679,
        "meta_inclination": 102.6228,
        "meta_ra_of_asc_node": 98.6861,
        "meta_arg_of_pericenter": 27.5364,
        "meta_mean_anomaly": 0.7265,
        "meta_ephemeris_type": 0,
        "meta_classification_type": "U",
        "meta_norad_cat_id": 30290,
        "meta_element_set_no": 999,
        "meta_rev_at_epoch": 97975,
        "meta_bstar": 0.0031569,
        "meta_mean_motion_dot": 0.00021408,
        "meta_mean_motion_ddot": 0,
        "tle_line1": "1 30290U 99025ZB  25353.26569622  .00021408  00000+0  31569-2 0  9995",
        "tle_line2": "2 30290 102.6228  98.6861 0016679  27.5364   0.7265 14.75293189979757"
      },
      "geometry": {
        "type": "Point",
        "coordinates": [
          72.06018454113041,
          64.48784779289569
        ]
      }
    },
    {
      "type": "Feature",
      "properties": {
        "norad_id": 30291,
        "name": "FENGYUN 1C DEB",
        "group": "fengyun-1c-debris",
        "lat": -15.518211254441491,
        "lon": -116.02357610805001,
        "alt_km": 635.4690130632371,
        "timestamp": "2025-12-20T03:42:47.668397+00:00",
        "meta_object_name": "FENGYUN 1C DEB",
        "meta_object_id": "1999-025ZC",
        "meta_epoch": "2025-12-18T15:46:15.375360",
        "meta_mean_motion": 14.55378498,
        "meta_eccentricity": 0.01113433,
        "meta_inclination": 97.2324,
        "meta_ra_of_asc_node": 240.6579,
        "meta_arg_of_pericenter": 0.6983,
        "meta_mean_anomaly": 62.2448,
        "meta_ephemeris_type": 0,
        "meta_classification_type": "U",
        "meta_norad_cat_id": 30291,
        "meta_element_set_no": 999,
        "meta_rev_at_epoch": 97794,
        "meta_bstar": 0.0022501127,
        "meta_mean_motion_dot": 0.00010591,
        "meta_mean_motion_ddot": 0,
        "tle_line1": "1 30291U 99025ZC  25352.65712240  .00010591  00000+0  22501-2 0  9991",
        "tle_line2": "2 30291  97.2324 240.6579 0111343   0.6983  62.2448 14.55378498977942"
      },
      "geometry": {
        "type": "Point",
        "coordinates": [
          -116.02357610805001,
          -15.518211254441491
        ]
      }
    },
    {
      "type": "Feature",
      "properties": {
        "norad_id": 30293,
        "name": "FENGYUN 1C DEB",
        "group": "fengyun-1c-debris",
        "lat": 69.86051540161922,
        "lon": 159.39453370684893,
        "alt_km": 671.0344661764584,
        "timestamp": "2025-12-20T03:42:47.668407+00:00",
        "meta_object_name": "FENGYUN 1C DEB",
        "meta_object_id": "1999-025ZE",
        "meta_epoch": "2025-12-19T19:09:17.137728",
        "meta_mean_motion": 14.48981345,
        "meta_eccentricity": 0.0076805,
        "meta_inclination": 99.2543,
        "meta_ra_of_asc_node": 185.4009,
        "meta_arg_of_pericenter": 93.8304,
        "meta_mean_anomaly": 279.4454,
        "meta_ephemeris_type": 0,
        "meta_classification_type": "U",
        "meta_norad_cat_id": 30293,
        "meta_element_set_no": 999,
        "meta_rev_at_epoch": 99079,
        "meta_bstar": 0.00049778,
        "meta_mean_motion_dot": 1.904e-05,
        "meta_mean_motion_ddot": 0,
        "tle_line1": "1 30293U 99025ZE  25353.79811502  .00001904  00000+0  49778-3 0  9994",
        "tle_line2": "2 30293  99.2543 185.4009 0076805  93.8304 279.4454 14.48981345990797"
      },
      "geometry": {
        "type": "Point",
        "coordinates": [
          159.39453370684893,
          69.86051540161922
        ]
      }
    },
    {
      "type": "Feature",
      "properties": {
        "norad_id": 30294,
        "name": "FENGYUN 1C DEB",
        "group": "fengyun-1c-debris",
        "lat": -18.182546919184155,
        "lon": -15.06798368084554,
        "alt_km": 695.9017928589665,
        "timestamp": "2025-12-20T03:42:47.668417+00:00",
        "meta_object_name": "FENGYUN 1C DEB",
        "meta_object_id": "1999-025ZF",
        "meta_epoch": "2025-12-19T11:40:37.176096",
        "meta_mean_motion": 14.34968294,
        "meta_eccentricity": 0.0197243,
        "meta_inclination": 98.3563,
        "meta_ra_of_asc_node": 341.5178,
        "meta_arg_of_pericenter": 289.4686,
        "meta_mean_anomaly": 200.7112,
        "meta_ephemeris_type": 0,
        "meta_classification_type": "U",
        "meta_norad_cat_id": 30294,
        "meta_element_set_no": 999,
        "meta_rev_at_epoch": 98633,
        "meta_bstar": 0.00026595,
        "meta_mean_motion_dot": 8.92e-06,
        "meta_mean_motion_ddot": 0,
        "tle_line1": "1 30294U 99025ZF  25353.48654139  .00000892  00000+0  26595-3 0  9999",
        "tle_line2": "2 30294  98.3563 341.5178 0197243 289.4686 200.7112 14.34968294986334"
      },
      "geometry": {
        "type": "Point",
        "coordinates": [
          -15.06798368084554,
          -18.182546919184155
        ]
      }
    },
    {
      "type": "Feature",
      "properties": {
        "norad_id": 30295,
        "name": "FENGYUN 1C DEB",
        "group": "fengyun-1c-debris",
        "lat": 17.381041067196175,
        "lon": 13.69192444981142,
        "alt_km": 759.1121034750267,
        "timestamp": "2025-12-20T03:42:47.668427+00:00",
        "meta_object_name": "FENGYUN 1C DEB",
        "meta_object_id": "1999-025ZG",
        "meta_epoch": "2025-12-19T07:28:53.427936",
        "meta_mean_motion": 14.25049146,
        "meta_eccentricity": 0.0094375,
        "meta_inclination": 98.5076,
        "meta_ra_of_asc_node": 15.5601,
        "meta_arg_of_pericenter": 63.495,
        "meta_mean_anomaly": 312.7141,
        "meta_ephemeris_type": 0,
        "meta_classification_type": "U",
        "meta_norad_cat_id": 30295,
        "meta_element_set_no": 999,
        "meta_rev_at_epoch": 98270,
        "meta_bstar": 0.00012634,
        "meta_mean_motion_dot": 2.68e-06,
        "meta_mean_motion_ddot": 0,
        "tle_line1": "1 30295U 99025ZG  25353.31172949  .00000268  00000+0  12634-3 0  9992",
        "tle_line2": "2 30295  98.5076  15.5601 0094375  63.4950 312.7141 14.25049146982700"
      },
      "geometry": {
        "type": "Point",
        "coordinates": [
          13.69192444981142,
          17.381041067196175
        ]
      }
    },
    {
      "type": "Feature",
      "properties": {
        "norad_id": 30297,
        "name": "FENGYUN 1C DEB",
        "group": "fengyun-1c-debris",
        "lat": -55.33204968009263,
        "lon": 112.75681163744414,
        "alt_km": 1037.524310260369,
        "timestamp": "2025-12-20T03:42:47.668437+00:00",
        "meta_object_name": "FENGYUN 1C DEB",
        "meta_object_id": "1999-025ZJ",
        "meta_epoch": "2025-12-19T10:18:15.647328",
        "meta_mean_motion": 14.21865016,
        "meta_eccentricity": 0.0379768,
        "meta_inclination": 98.8123,
        "meta_ra_of_asc_node": 304.9921,
        "meta_arg_of_pericenter": 96.3221,
        "meta_mean_anomaly": 26.3285,
        "meta_ephemeris_type": 0,
        "meta_classification_type": "U",
        "meta_norad_cat_id": 30297,
        "meta_element_set_no": 999,
        "meta_rev_at_epoch": 95247,
        "meta_bstar": 0.00088873,
        "meta_mean_motion_dot": 4.06e-05,
        "meta_mean_motion_ddot": 0,
        "tle_line1": "1 30297U 99025ZJ  25353.42934777  .00004060  00000+0  88873-3 0  9993",
        "tle_line2": "2 30297  98.8123 304.9921 0379768  96.3221  26.3285 14.21865016952472"
      },
      "geometry": {
        "type": "Point",
        "coordinates": [
          112.75681163744414,
          -55.33204968009263
        ]
      }
    },
    {
      "type": "Feature",
      "properties": {
        "norad_id": 30298,
        "name": "FENGYUN 1C DEB",
        "group": "fengyun-1c-debris",
        "lat": -66.16761727547602,
        "lon": -115.81130631227067,
        "alt_km": 859.1084183628163,
        "timestamp": "2025-12-20T03:42:47.668448+00:00",
        "meta_object_name": "FENGYUN 1C DEB",
        "meta_object_id": "1999-025ZK",
        "meta_epoch": "2025-12-19T20:21:12.705408",
        "meta_mean_motion": 14.19988036,
        "meta_eccentricity": 0.0047863,
        "meta_inclination": 99.0021,
        "meta_ra_of_asc_node": 84.9077,
        "meta_arg_of_pericenter": 108.2186,
        "meta_mean_anomaly": 12.4949,
        "meta_ephemeris_type": 0,
        "meta_classification_type": "U",
        "meta_norad_cat_id": 30298,
        "meta_element_set_no": 999,
        "meta_rev_at_epoch": 96935,
        "meta_bstar": 0.0013202,
        "meta_mean_motion_dot": 2.795e-05,
        "meta_mean_motion_ddot": 0,
        "tle_line1": "1 30298U 99025ZK  25353.84806372  .00002795  00000+0  13202-2 0  9995",
        "tle_line2": "2 30298  99.0021  84.9077 0047863 108.2186  12.4949 14.19988036969354"
      },
      "geometry": {
        "type": "Point",
        "coordinates": [
          -115.81130631227067,
          -66.16761727547602
        ]
      }
    }
  ]
}